GLOBALSTAR M028         
1 25875U 99041D   24366.63161058  .00000002  00000+0  66531-3 0  9996
2 25875  51.9644 332.6845 0063685  67.4509 293.3076 12.50573816169215
GLOBALSTAR M024         
1 25883U 99043A   24366.83969684 -.00000001  00000+0  22608-2 0  9996
2 25883  52.0044  38.2160 0001800 173.7616 356.7914 11.10165018 96276
GLOBALSTAR M027         
1 25884U 99043B   24366.59544316 -.00000142  00000+0 -29717-2 0  9996
2 25884  52.0204 111.9997 0021884  82.5106 277.8172 11.04370431122726
GLOBALSTAR M054         
1 25885U 99043C   24366.79648786  .00000091  00000+0  41348-2 0  9990
2 25885  52.0137 266.9472 0005025 254.8426 145.7105 11.39213689 99977
GLOBALSTAR M053         
1 25886U 99043D   24366.91392083 -.00000046  00000+0  66833-3 0  9999
2 25886  51.9945 204.4772 0004060 137.5691   3.6526 11.27662236100573
GLOBALSTAR M058         
1 25907U 99049A   24366.85143202 -.00000072  00000+0  17319-3 0  9993
2 25907  51.9907 196.0042 0001329   1.1275 358.9562 11.93191372521563
GLOBALSTAR M050         
1 25908U 99049B   24366.84317140  .00000029  00000+0  13205-2 0  9997
2 25908  51.9964 216.2048 0010307  60.8287  53.3038 12.07447619127974
GLOBALSTAR M033         
1 25909U 99049C   24366.76299418 -.00000102  00000+0 -10331-3 0  9998
2 25909  51.9912  99.8191 0012156 276.8849  83.0615 12.20294280515307
GLOBALSTAR M055         
1 25910U 99049D   24366.77733172 -.00000079  00000+0  13092-3 0  9990
2 25910  52.0012 118.6760 0007958 141.1615 218.9809 12.29417958147698
GLOBALSTAR M057         
1 25943U 99058A   24366.65685629 -.00000062  00000+0  28465-3 0  9998
2 25943  51.9982 103.6475 0002649  54.6485 305.4612 12.24806039146409
GLOBALSTAR M059         
1 25944U 99058B   24366.90583986 -.00000119  00000+0 -40892-3 0  9992
2 25944  52.0034 299.7219 0000834  30.6340 356.4265 11.99972657553965
GLOBALSTAR M056         
1 25945U 99058C   24366.61028537 -.00000036  00000+0  59935-3 0  9992
2 25945  51.9981 306.7810 0000356 205.8497 325.1261 12.04775594142421
GLOBALSTAR M031         
1 25946U 99058D   24366.89991304  .00000038  00000+0  13065-2 0  9998
2 25946  51.9929 208.3377 0001384 145.7479 299.4754 12.16025811144192
GLOBALSTAR M039         
1 25961U 99062A   24366.85643816 -.00000031  00000+0  40392-3 0  9996
2 25961  51.9858  58.3692 0002213 344.0138  16.0658 12.62314290159084
GLOBALSTAR M034         
1 25962U 99062B   24366.76127071  .00000059  00000+0  22216-2 0  9990
2 25962  51.9878  86.5967 0014643  87.4660  59.3942 11.79438786118639
GLOBALSTAR M029         
1 25963U 99062C   24366.93229064 -.00000061  00000+0  31203-3 0  9996
2 25963  51.9770 187.8295 0003435 130.1151  20.4486 11.99889958149042
GLOBALSTAR M061         
1 25964U 99062D   24366.47609863 -.00000035  00000+0  74173-3 0  9999
2 25964  51.9793 269.1500 0006708  15.5782 155.5561 11.76769600101434
GLOBALSTAR M062         
1 26082U 00008B   24366.85776906 -.00000144  00000+0 -32465-3 0  9998
2 26082  51.9829 227.8454 0007896 109.4378 359.8897 12.43456511475803
GLOBALSTAR M060         
1 26083U 00008C   24366.78766145 -.00000021  00000+0  69240-3 0  9999
2 26083  51.9990 164.3749 0004329 131.7328   5.7464 12.17652567131970
GLOBALSTAR M064         
1 26084U 00008D   24366.86923228 -.00000013  00000+0  10009-2 0  9995
2 26084  52.0045 293.0279 0002078  80.4512 279.6556 11.88528357147209
GLOBALSTAR M069         
1 31573U 07020C   24366.70974309 -.00000061  00000+0  25215-3 0  9993
2 31573  51.9971 336.2171 0000430  85.8544  85.5436 12.53308121813310
GLOBALSTAR M072         
1 31574U 07020D   24366.72350954 -.00000103  00000+0 -23637-3 0  9994
2 31574  52.0084  77.8554 0001049  85.5639  92.8466 11.95103701811493
GLOBALSTAR M071         
1 31576U 07020F   24366.69483810 -.00000067  00000+0  23383-3 0  9996
2 31576  52.0084 340.6949 0001935  64.9020 106.3769 12.31891391474518
GLOBALSTAR M070         
1 32264U 07048B   25001.16089718 -.00000025  00000+0  44219-3 0  9994
2 32264  51.9754 277.3321 0000929  66.4382  78.2341 12.62309162793550
