OBJECT_NAME,OBJECT_ID,EPOCH,MEAN_MOTION,ECCENTRICITY,INCLINATION,RA_OF_ASC_NODE,ARG_OF_PERICENTER,MEAN_ANOMALY,EPHEMERIS_TYPE,CLASSIFICATION_TYPE,NORAD_CAT_ID,ELEMENT_SET_NO,REV_AT_EPOCH,BSTAR,MEAN_MOTION_DOT,MEAN_MOTION_DDOT
GLOBALSTAR M028,1999-041D,2024-12-31T15:09:31.154112,12.50573816,.0063685,51.9644,332.6845,67.4509,293.3076,0,U,25875,999,16921,.66531E-3,.2E-7,0
GLOBALSTAR M024,1999-043A,2024-12-31T20:09:09.806976,11.10165018,.00018,52.0044,38.2160,173.7616,356.7914,0,U,25883,999,9627,.22608E-2,-.1E-7,0
GLOBALSTAR M027,1999-043B,2024-12-31T14:17:26.289024,11.04370431,.0021884,52.0204,111.9997,82.5106,277.8172,0,U,25884,999,12272,-.29717E-2,-.142E-5,0
GLOBALSTAR M054,1999-043C,2024-12-31T19:06:56.551104,11.39213689,.0005025,52.0137,266.9472,254.8426,145.7105,0,U,25885,999,9997,.41348E-2,.91E-6,0
GLOBALSTAR M053,1999-043D,2024-12-31T21:56:02.759712,11.27662236,.000406,51.9945,204.4772,137.5691,3.6526,0,U,25886,999,10057,.66833E-3,-.46E-6,0
GLOBALSTAR M058,1999-049A,2024-12-31T20:26:03.726528,11.93191372,.0001329,51.9907,196.0042,1.1275,358.9562,0,U,25907,999,52156,.17319E-3,-.72E-6,0
GLOBALSTAR M050,1999-049B,2024-12-31T20:14:10.008960,12.07447619,.0010307,51.9964,216.2048,60.8287,53.3038,0,U,25908,999,12797,.13205E-2,.29E-6,0
GLOBALSTAR M033,1999-049C,2024-12-31T18:18:42.697152,12.20294280,.0012156,51.9912,99.8191,276.8849,83.0615,0,U,25909,999,51530,-.10331E-3,-.102E-5,0
GLOBALSTAR M055,1999-049D,2024-12-31T18:39:21.460608,12.29417958,.0007958,52.0012,118.6760,141.1615,218.9809,0,U,25910,999,14769,.13092E-3,-.79E-6,0
GLOBALSTAR M057,1999-058A,2024-12-31T15:45:52.383456,12.24806039,.0002649,51.9982,103.6475,54.6485,305.4612,0,U,25943,999,14640,.28465E-3,-.62E-6,0
GLOBALSTAR M059,1999-058B,2024-12-31T21:44:24.563904,11.99972657,.0000834,52.0034,299.7219,30.6340,356.4265,0,U,25944,999,55396,-.40892E-3,-.119E-5,0
GLOBALSTAR M056,1999-058C,2024-12-31T14:38:48.655968,12.04775594,.0000356,51.9981,306.7810,205.8497,325.1261,0,U,25945,999,14242,.59935E-3,-.36E-6,0
GLOBALSTAR M031,1999-058D,2024-12-31T21:35:52.486656,12.16025811,.0001384,51.9929,208.3377,145.7479,299.4754,0,U,25946,999,14419,.13065E-2,.38E-6,0
GLOBALSTAR M039,1999-062A,2024-12-31T20:33:16.257024,12.62314290,.0002213,51.9858,58.3692,344.0138,16.0658,0,U,25961,999,15908,.40392E-3,-.31E-6,0
GLOBALSTAR M034,1999-062B,2024-12-31T18:16:13.789344,11.79438786,.0014643,51.9878,86.5967,87.4660,59.3942,0,U,25962,999,11863,.22216E-2,.59E-6,0
GLOBALSTAR M029,1999-062C,2024-12-31T22:22:29.911296,11.99889958,.0003435,51.9770,187.8295,130.1151,20.4486,0,U,25963,999,14904,.31203E-3,-.61E-6,0
GLOBALSTAR M061,1999-062D,2024-12-31T11:25:34.921632,11.76769600,.0006708,51.9793,269.1500,15.5782,155.5561,0,U,25964,999,10143,.74173E-3,-.35E-6,0
GLOBALSTAR M062,2000-008B,2024-12-31T20:35:11.246784,12.43456511,.0007896,51.9829,227.8454,109.4378,359.8897,0,U,26082,999,47580,-.32465E-3,-.144E-5,0
GLOBALSTAR M060,2000-008C,2024-12-31T18:54:13.949280,12.17652567,.0004329,51.9990,164.3749,131.7328,5.7464,0,U,26083,999,13197,.6924E-3,-.21E-6,0
GLOBALSTAR M064,2000-008D,2024-12-31T20:51:41.668992,11.88528357,.0002078,52.0045,293.0279,80.4512,279.6556,0,U,26084,999,14720,.10009E-2,-.13E-6,0
GLOBALSTAR M069,2007-020C,2024-12-31T17:02:01.802976,12.53308121,.000043,51.9971,336.2171,85.8544,85.5436,0,U,31573,999,81331,.25215E-3,-.61E-6,0
GLOBALSTAR M072,2007-020D,2024-12-31T17:21:51.224256,11.95103701,.0001049,52.0084,77.8554,85.5639,92.8466,0,U,31574,999,81149,-.23637E-3,-.103E-5,0
GLOBALSTAR M071,2007-020F,2024-12-31T16:40:34.011840,12.31891391,.0001935,52.0084,340.6949,64.9020,106.3769,0,U,31576,999,47451,.23383E-3,-.67E-6,0
GLOBALSTAR M070,2007-048B,2025-01-01T03:51:41.516352,12.62309162,.0000929,51.9754,277.3321,66.4382,78.2341,0,U,32264,999,79355,.44219E-3,-.25E-6,0
